{
    "links": {
        "self": "http://www.neowsapp.com/rest/v1/neo/3647018?api_key=iIulBulltgU6a56xZRHN4H3l9WmuAYTsLGpBGhQ2"
    },
    "id": "3647018",
    "neo_reference_id": "3647018",
    "name": "(2013 RW5)",
    "designation": "2013 RW5",
    "nasa_jpl_url": "http://ssd.jpl.nasa.gov/sbdb.cgi?sstr=3647018",
    "absolute_magnitude_h": 22.4,
    "estimated_diameter": {
        "kilometers": {
            "estimated_diameter_min": 0.0880146521,
            "estimated_diameter_max": 0.1968067451
        },
        "meters": {
            "estimated_diameter_min": 88.0146520901,
            "estimated_diameter_max": 196.8067450894
        },
        "miles": {
            "estimated_diameter_min": 0.0546897524,
            "estimated_diameter_max": 0.122290004
        },
        "feet": {
            "estimated_diameter_min": 288.7619911632,
            "estimated_diameter_max": 645.6914415591
        }
    },
    "is_potentially_hazardous_asteroid": false,
    "close_approach_data": [
        {
            "close_approach_date": "1913-08-20",
            "close_approach_date_full": "1913-Aug-20 03:18",
            "epoch_date_close_approach": -1778791320000,
            "relative_velocity": {
                "kilometers_per_second": "19.9371228057",
                "kilometers_per_hour": "71773.6421006266",
                "miles_per_hour": "44597.3500041365"
            },
            "miss_distance": {
                "astronomical": "0.1661708241",
                "lunar": "64.6404505749",
                "kilometers": "24858801.341504667",
                "miles": "15446542.8878997246"
            },
            "orbiting_body": "Earth"
        },
        {
            "close_approach_date": "2013-08-02",
            "close_approach_date_full": "2013-Aug-02 15:57",
            "epoch_date_close_approach": 1375459020000,
            "relative_velocity": {
                "kilometers_per_second": "12.7779081911",
                "kilometers_per_hour": "46000.4694879424",
                "miles_per_hour": "28582.9028326606"
            },
            "miss_distance": {
                "astronomical": "0.1247907576",
                "lunar": "48.5436047064",
                "kilometers": "18668431.532646312",
                "miles": "11600025.4540586256"
            },
            "orbiting_body": "Earth"
        },
        {
            "close_approach_date": "2108-08-21",
            "close_approach_date_full": "2108-Aug-21 21:15",
            "epoch_date_close_approach": 4375026900000,
            "relative_velocity": {
                "kilometers_per_second": "19.588015024",
                "kilometers_per_hour": "70516.8540864004",
                "miles_per_hour": "43816.4308071858"
            },
            "miss_distance": {
                "astronomical": "0.1447782874",
                "lunar": "56.3187537986",
                "kilometers": "21658523.417287838",
                "miles": "13457982.3965666444"
            },
            "orbiting_body": "Earth"
        }
    ],
    "orbital_data": {
        "orbit_id": "7",
        "orbit_determination_date": "2017-04-06 08:44:55",
        "first_observation_date": "2013-09-01",
        "last_observation_date": "2013-09-13",
        "data_arc_in_days": 12,
        "observations_used": 24,
        "orbit_uncertainty": "8",
        "minimum_orbit_intersection": ".0558114",
        "jupiter_tisserand_invariant": "3.830",
        "epoch_osculation": "2456537.5",
        "eccentricity": ".5624858605941853",
        "semi_major_axis": "1.810464783884596",
        "inclination": "11.36754171182919",
        "ascending_node_longitude": "154.051524570552",
        "orbital_period": "889.7818635285215",
        "perihelion_distance": ".7921039418458033",
        "perihelion_argument": "95.60948315426694",
        "aphelion_distance": "2.828825625923389",
        "perihelion_time": "2456461.928593656479",
        "mean_anomaly": "30.57570332551007",
        "mean_motion": ".404593546751316",
        "equinox": "J2000",
        "orbit_class": {
            "orbit_class_type": "APO",
            "orbit_class_description": "Near-Earth asteroid orbits which cross the Earth’s orbit similar to that of 1862 Apollo",
            "orbit_class_range": "a (semi-major axis) > 1.0 AU; q (perihelion) < 1.017 AU"
        }
    },
    "is_sentry_object": false
}